{"spkid": "50758950", "covariance": {"labels": ["e", "q", "tp", "node", "peri", "i"], "data": [["9.428961149338993E-15", "-1.232259979331728E-14", "-4.434229475644584E-12", "1.007854586978468E-12", "-4.010119769846335E-12", "-1.648631409390644E-13"], ["-1.232259979331728E-14", "1.611426341656288E-14", "5.77005052505228E-12", "-1.314953598039647E-12", "5.228761407495383E-12", "2.161098347415635E-13"], ["-4.434229475644584E-12", "5.77005052505228E-12", "6.168929557492441E-9", "-9.5823826852033E-10", "4.51170721829318E-9", "4.963790590369551E-11"], ["1.007854586978468E-12", "-1.314953598039647E-12", "-9.5823826852033E-10", "5.68717807917419E-10", "-1.113920218346461E-9", "-1.864434141122476E-10"], ["-4.010119769846335E-12", "5.228761407495383E-12", "4.51170721829318E-9", "-1.113920218346461E-9", "3.766085093083743E-9", "2.125876374231301E-10"], ["-1.648631409390644E-13", "2.161098347415635E-13", "4.963790590369551E-11", "-1.864434141122476E-10", "2.125876374231301E-10", "1.514342922962485E-10"]], "elements": [{"label": "e", "title": "eccentricity", "value": ".2750874191942088", "units": null, "name": "e", "sigma": 9.71028380086751e-08}, {"value": ".9497829248614327", "title": "perihelion distance", "units": "au", "name": "q", "sigma": 1.26941968696578e-07, "label": "q"}, {"label": "tp", "title": "time of perihelion passage", "value": "2458578.486947390631", "units": "TDB", "name": "tp", "sigma": 7.85425334292983e-05}, {"label": "node", "sigma": 2.38478050964322e-05, "name": "om", "value": "188.6205127289722", "title": "longitude of the ascending node", "units": "deg"}, {"sigma": 6.13684372709925e-05, "name": "w", "units": "deg", "title": "argument of perihelion", "value": "20.46924290062664", "label": "peri"}, {"label": "i", "units": "deg", "value": "25.28609806028286", "title": "inclination", "sigma": 1.23058641426049e-05, "name": "i"}], "epoch": "2458835.5"}, "elements": [{"title": "eccentricity", "value": ".2749083503645033", "units": null, "sigma": "9.7433E-8", "name": "e", "label": "e"}, {"label": "a", "sigma": "4.5844E-9", "name": "a", "value": "1.309777056218661", "title": "semi-major axis", "units": "au"}, {"label": "q", "units": "au", "title": "perihelion distance", "value": ".9497084063483133", "sigma": "1.2691E-7", "name": "q"}, {"label": "i", "title": "inclination; angle with respect to x-y ecliptic plane", "value": "25.28856055220244", "units": "deg", "name": "i", "sigma": "1.2305E-5"}, {"label": "node", "name": "om", "sigma": "2.3853E-5", "title": "longitude of the ascending node", "value": "188.5854837787525", "units": "deg"}, {"name": "w", "sigma": "6.1443E-5", "value": "20.53136425194556", "title": "argument of perihelion", "units": "deg", "label": "peri"}, {"label": "M", "sigma": "4.9829E-5", "name": "ma", "units": "deg", "value": "283.4406887024258", "title": "mean anomaly"}, {"sigma": "7.5605E-5", "name": "tp", "value": "2461316.936733110263", "title": "time of perihelion passage", "units": "TDB", "label": "tp"}, {"sigma": "2.8746E-6", "name": "per", "units": "d", "title": "sidereal orbital period", "value": "547.5130746248328", "label": "period"}, {"label": "n", "title": "mean motion", "value": ".6575185446423893", "units": "deg/d", "sigma": "3.4521E-9", "name": "n"}, {"label": "Q", "units": "au", "title": "aphelion distance", "value": "1.669845706089008", "sigma": "5.8447E-9", "name": "ad"}], "epoch": "2461200.5"}